stk.v.4.3 

BEGIN Ephemeris 
 
NumberOfEphemerisPoints		146 
ScenarioEpoch	    1 Sep 2020 13: 5:36.491140724 
InterpolationMethod		Lagrange 
InterpolationOrder		5 
CentralBody				Earth 
CoordinateSystem			TEME 
CoordinateSystemEpoch	  1 Sep 2020 13: 5:36.491140724 
DistanceUnit			Kilometers 
 
EphemerisTimePosVel 
 
       0.00000000   -2583.56006164   -6669.00349258       0.04168211  0.441063879 -0.161224970  7.452914332
 END Ephemeris 
